CS2                     
1 49262U 21088C   26068.73485932  .00018033  00000+0  56178-3 0  9999
2 49262  97.3928 134.2907 0011637  82.3491 277.9072 15.33255930245263
STARLINK-32340          
1 61008U 24158U   26068.39690049 -.00002670  00000+0 -78111-4 0  9995
2 61008  53.1614  67.0145 0001307  89.3267 270.7884 15.30171823 85534
